{"type": "FeatureCollection", "features": [ {"type": "Feature", "properties": {"norad_id": 36366, "name": "COSMOS 2251 DEB", "group": "cosmos-2251-debris", "lat": 10.146701317877698, "lon": -100.51776650597002, "alt_km": 778.2148063313562, "timestamp": "2025-12-21T18:54:58.892790+00:00", "meta": {"OBJECT_NAME": "COSMOS 2251 DEB", "OBJECT_ID": "1993-036AYT", "EPOCH": "2025-12-21T02:07:04.596096", "MEAN_MOTION": 14.33456024, "ECCENTRICITY": 0.00902565, "INCLINATION": 74.066, "RA_OF_ASC_NODE": 257.8285, "ARG_OF_PERICENTER": 284.4173, "MEAN_ANOMALY": 74.6975, "EPHEMERIS_TYPE": 0, "CLASSIFICATION_TYPE": "U", "NORAD_CAT_ID": 36366, "ELEMENT_SET_NO": 999, "REV_AT_EPOCH": 86408, "BSTAR": 0.00088330891, "MEAN_MOTION_DOT": 2.527e-05, "MEAN_MOTION_DDOT": 0}, "tle": {"line1": "1 36366U 93036AYT 25355.08824764  .00002527  00000+0  88331-3 0  9995", "line2": "2 36366  74.0660 257.8285 0090256 284.4173  74.6975 14.33456024864083"}}, "geometry": {"type": "Point", "coordinates": [-100.51776650597002, 10.146701317877698]}}, {"type": "Feature", "properties": {"norad_id": 36367, "name": "COSMOS 2251 DEB", "group": "cosmos-2251-debris", "lat": -42.42377893563414, "lon": -158.94013218981485, "alt_km": 778.0238959158551, "timestamp": "2025-12-21T18:54:58.892799+00:00", "meta": {"OBJECT_NAME": "COSMOS 2251 DEB", "OBJECT_ID": "1993-036AYU", "EPOCH": "2025-12-20T08:29:16.285344", "MEAN_MOTION": 13.86366524, "ECCENTRICITY": 0.02619085, "INCLINATION": 74.1004, "RA_OF_ASC_NODE": 218.5774, "ARG_OF_PERICENTER": 289.7911, "MEAN_ANOMALY": 67.515, "EPHEMERIS_TYPE": 0, "CLASSIFICATION_TYPE": "U", "NORAD_CAT_ID": 36367, "ELEMENT_SET_NO": 999, "REV_AT_EPOCH": 57635, "BSTAR": 0.0011101793, "MEAN_MOTION_DOT": 1.658e-05, "MEAN_MOTION_DDOT": 0}, "tle": {"line1": "1 36367U 93036AYU 25354.35366071  .00001658  00000+0  11102-2 0  9992", "line2": "2 36367  74.1004 218.5774 0261908 289.7911  67.5150 13.86366524576354"}}, "geometry": {"type": "Point", "coordinates": [-158.94013218981485, -42.42377893563414]}}, {"type": "Feature", "properties": {"norad_id": 36369, "name": "COSMOS 2251 DEB", "group": "cosmos-2251-debris", "lat": 68.27690803400839, "lon": 99.02734277849167, "alt_km": 637.8458659349462, "timestamp": "2025-12-21T18:54:58.892809+00:00", "meta": {"OBJECT_NAME": "COSMOS 2251 DEB", "OBJECT_ID": "1993-036AYW", "EPOCH": "2025-12-21T10:25:50.498400", "MEAN_MOTION": 14.73682344, "ECCENTRICITY": 0.0010476, "INCLINATION": 74.0314, "RA_OF_ASC_NODE": 53.7689, "ARG_OF_PERICENTER": 128.4088, "MEAN_ANOMALY": 231.8027, "EPHEMERIS_TYPE": 0, "CLASSIFICATION_TYPE": "U", "NORAD_CAT_ID": 36369, "ELEMENT_SET_NO": 999, "REV_AT_EPOCH": 86050, "BSTAR": 0.00084133, "MEAN_MOTION_DOT": 5.466e-05, "MEAN_MOTION_DDOT": 0}, "tle": {"line1": "1 36369U 93036AYW 25355.43461225  .00005466  00000+0  84133-3 0  9997", "line2": "2 36369  74.0314  53.7689 0010476 128.4088 231.8027 14.73682344860509"}}, "geometry": {"type": "Point", "coordinates": [99.02734277849167, 68.27690803400839]}}, {"type": "Feature", "properties": {"norad_id": 36371, "name": "COSMOS 2251 DEB", "group": "cosmos-2251-debris", "lat": -64.38075929501397, "lon": 0.6653254287008178, "alt_km": 662.9353871973399, "timestamp": "2025-12-21T18:54:58.892819+00:00", "meta": {"OBJECT_NAME": "COSMOS 2251 DEB", "OBJECT_ID": "1993-036AYY", "EPOCH": "2025-12-20T18:55:49.351296", "MEAN_MOTION": 14.70759201, "ECCENTRICITY": 0.00090109, "INCLINATION": 74.0126, "RA_OF_ASC_NODE": 145.8897, "ARG_OF_PERICENTER": 185.2625, "MEAN_ANOMALY": 174.8453, "EPHEMERIS_TYPE": 0, "CLASSIFICATION_TYPE": "U", "NORAD_CAT_ID": 36371, "ELEMENT_SET_NO": 999, "REV_AT_EPOCH": 71563, "BSTAR": 0.0011784478, "MEAN_MOTION_DOT": 7.171e-05, "MEAN_MOTION_DDOT": 0}, "tle": {"line1": "1 36371U 93036AYY 25354.78876564  .00007171  00000+0  11784-2 0  9999", "line2": "2 36371  74.0126 145.8897 0009010 185.2625 174.8453 14.70759201715633"}}, "geometry": {"type": "Point", "coordinates": [0.6653254287008178, -64.38075929501397]}}, {"type": "Feature", "properties": {"norad_id": 36379, "name": "COSMOS 2251 DEB", "group": "cosmos-2251-debris", "lat": 5.062927207892181, "lon": -68.3589854767485, "alt_km": 753.1770575131995, "timestamp": "2025-12-21T18:54:58.892829+00:00", "meta": {"OBJECT_NAME": "COSMOS 2251 DEB", "OBJECT_ID": "1993-036AZG", "EPOCH": "2025-12-21T02:14:38.502816", "MEAN_MOTION": 14.36091919, "ECCENTRICITY": 0.00448164, "INCLINATION": 74.0129, "RA_OF_ASC_NODE": 291.4624, "ARG_OF_PERICENTER": 57.9805, "MEAN_ANOMALY": 317.791, "EPHEMERIS_TYPE": 0, "CLASSIFICATION_TYPE": "U", "NORAD_CAT_ID": 36379, "ELEMENT_SET_NO": 999, "REV_AT_EPOCH": 64948, "BSTAR": 0.00021634378, "MEAN_MOTION_DOT": 6.11e-06, "MEAN_MOTION_DDOT": 0}, "tle": {"line1": "1 36379U 93036AZG 25355.09350119  .00000611  00000+0  21634-3 0  9993", "line2": "2 36379  74.0129 291.4624 0044816  57.9805 317.7910 14.36091919649480"}}, "geometry": {"type": "Point", "coordinates": [-68.3589854767485, 5.062927207892181]}}, {"type": "Feature", "properties": {"norad_id": 36385, "name": "COSMOS 2251 DEB", "group": "cosmos-2251-debris", "lat": 63.1521783499712, "lon": 171.45452561426703, "alt_km": 693.0877425869012, "timestamp": "2025-12-21T18:54:58.892839+00:00", "meta": {"OBJECT_NAME": "COSMOS 2251 DEB", "OBJECT_ID": "1993-036AZN", "EPOCH": "2025-12-20T19:47:03.334560", "MEAN_MOTION": 14.72696016, "ECCENTRICITY": 0.01415357, "INCLINATION": 73.9698, "RA_OF_ASC_NODE": 138.7285, "ARG_OF_PERICENTER": 311.3318, "MEAN_ANOMALY": 47.5743, "EPHEMERIS_TYPE": 0, "CLASSIFICATION_TYPE": "U", "NORAD_CAT_ID": 36385, "ELEMENT_SET_NO": 999, "REV_AT_EPOCH": 85221, "BSTAR": 0.0008039038, "MEAN_MOTION_DOT": 5.978e-05, "MEAN_MOTION_DDOT": 0}, "tle": {"line1": "1 36385U 93036AZN 25354.82434415  .00005978  00000+0  80390-3 0  9997", "line2": "2 36385  73.9698 138.7285 0141535 311.3318  47.5743 14.72696016852212"}}, "geometry": {"type": "Point", "coordinates": [171.45452561426703, 63.1521783499712]}}, {"type": "Feature", "properties": {"norad_id": 36420, "name": "COSMOS 2251 DEB", "group": "cosmos-2251-debris", "lat": -73.96115998448307, "lon": 174.21071518489572, "alt_km": 771.8658482375176, "timestamp": "2025-12-21T18:54:58.892848+00:00", "meta": {"OBJECT_NAME": "COSMOS 2251 DEB", "OBJECT_ID": "1993-036AZT", "EPOCH": "2025-12-21T02:55:38.256384", "MEAN_MOTION": 14.36907864, "ECCENTRICITY": 0.00184562, "INCLINATION": 74.0376, "RA_OF_ASC_NODE": 260.0713, "ARG_OF_PERICENTER": 346.0954, "MEAN_ANOMALY": 80.7548, "EPHEMERIS_TYPE": 0, "CLASSIFICATION_TYPE": "U", "NORAD_CAT_ID": 36420, "ELEMENT_SET_NO": 999, "REV_AT_EPOCH": 85157, "BSTAR": 0.00010545411, "MEAN_MOTION_DOT": 2.86e-06, "MEAN_MOTION_DDOT": 0}, "tle": {"line1": "1 36420U 93036AZT 25355.12197056  .00000286  00000+0  10545-3 0  9990", "line2": "2 36420  74.0376 260.0713 0018456 346.0954  80.7548 14.36907864851574"}}, "geometry": {"type": "Point", "coordinates": [174.21071518489572, -73.96115998448307]}}, {"type": "Feature", "properties": {"norad_id": 36430, "name": "COSMOS 2251 DEB", "group": "cosmos-2251-debris", "lat": -2.8052005788529337, "lon": 91.30201521272573, "alt_km": 833.1725330466516, "timestamp": "2025-12-21T18:54:58.892859+00:00", "meta": {"OBJECT_NAME": "COSMOS 2251 DEB", "OBJECT_ID": "1993-036BAD", "EPOCH": "2025-12-17T14:02:08.838528", "MEAN_MOTION": 14.27804633, "ECCENTRICITY": 0.00972961, "INCLINATION": 74.0048, "RA_OF_ASC_NODE": 99.7344, "ARG_OF_PERICENTER": 248.7934, "MEAN_ANOMALY": 110.2799, "EPHEMERIS_TYPE": 0, "CLASSIFICATION_TYPE": "U", "NORAD_CAT_ID": 36430, "ELEMENT_SET_NO": 999, "REV_AT_EPOCH": 64626, "BSTAR": 0.00041842357, "MEAN_MOTION_DOT": 1.061e-05, "MEAN_MOTION_DDOT": 0}, "tle": {"line1": "1 36430U 93036BAD 25351.58482452  .00001061  00000+0  41842-3 0  9990", "line2": "2 36430  74.0048  99.7344 0097296 248.7934 110.2799 14.27804633646268"}}, "geometry": {"type": "Point", "coordinates": [91.30201521272573, -2.8052005788529337]}}, {"type": "Feature", "properties": {"norad_id": 36437, "name": "COSMOS 2251 DEB", "group": "cosmos-2251-debris", "lat": -37.96418029318287, "lon": 3.3451634141239817, "alt_km": 659.7060382880645, "timestamp": "2025-12-21T18:54:58.892869+00:00", "meta": {"OBJECT_NAME": "COSMOS 2251 DEB", "OBJECT_ID": "1993-036BAL", "EPOCH": "2025-12-20T18:36:38.364192", "MEAN_MOTION": 14.70810572, "ECCENTRICITY": 0.00231641, "INCLINATION": 73.942, "RA_OF_ASC_NODE": 18.3096, "ARG_OF_PERICENTER": 249.5495, "MEAN_ANOMALY": 110.3188, "EPHEMERIS_TYPE": 0, "CLASSIFICATION_TYPE": "U", "NORAD_CAT_ID": 36437, "ELEMENT_SET_NO": 999, "REV_AT_EPOCH": 66169, "BSTAR": 0.00075908188, "MEAN_MOTION_DOT": 4.626e-05, "MEAN_MOTION_DDOT": 0}, "tle": {"line1": "1 36437U 93036BAL 25354.77544403  .00004626  00000+0  75908-3 0  9996", "line2": "2 36437  73.9420  18.3096 0023164 249.5495 110.3188 14.70810572661696"}}, "geometry": {"type": "Point", "coordinates": [3.3451634141239817, -37.96418029318287]}}, {"type": "Feature", "properties": {"norad_id": 36439, "name": "COSMOS 2251 DEB", "group": "cosmos-2251-debris", "lat": -22.703472626264624, "lon": -150.81262994076803, "alt_km": 1354.462502841794, "timestamp": "2025-12-21T18:54:58.892879+00:00", "meta": {"OBJECT_NAME": "COSMOS 2251 DEB", "OBJECT_ID": "1993-036BAN", "EPOCH": "2025-12-16T11:25:24.463776", "MEAN_MOTION": 13.47804354, "ECCENTRICITY": 0.04280619, "INCLINATION": 73.9685, "RA_OF_ASC_NODE": 30.7531, "ARG_OF_PERICENTER": 1.8523, "MEAN_ANOMALY": 358.4044, "EPHEMERIS_TYPE": 0, "CLASSIFICATION_TYPE": "U", "NORAD_CAT_ID": 36439, "ELEMENT_SET_NO": 999, "REV_AT_EPOCH": 58663, "BSTAR": 0.0011092098, "MEAN_MOTION_DOT": 1.175e-05, "MEAN_MOTION_DDOT": 0}, "tle": {"line1": "1 36439U 93036BAN 25350.47597759  .00001175  00000+0  11092-2 0  9992", "line2": "2 36439  73.9685  30.7531 0428061   1.8523 358.4044 13.47804354586639"}}, "geometry": {"type": "Point", "coordinates": [-150.81262994076803, -22.703472626264624]}}]}